STARLINK-5567           
1 55377U 23013AY  24272.04873681  .00002031  00000+0  16543-3 0  9997
2 55377  43.0051 299.9361 0001657 270.8653  89.2000 15.02532695 92627
STARLINK-5572           
1 55378U 23013AZ  24271.79947216  .00000900  00000+0  81671-4 0  9993
2 55378  43.0048 301.5054 0001706 269.8456  90.2191 15.02534644 92154
STARLINK-5569           
1 55379U 23013BA  24271.78948634  .00000387  00000+0  43755-4 0  9998
2 55379  43.0026 301.4306 0001211 266.9710  93.0994 15.02532608 92152
STARLINK-5571           
1 55380U 23013BB  24271.40112200 -.00000332  00000+0 -94918-5 0  9991
2 55380  43.0003 277.6782 0001053 269.0827  90.9895 15.02537520 92398
STARLINK-5575           
1 55381U 23013BC  24271.78615661  .00000718  00000+0  68254-4 0  9991
2 55381  43.0055 301.4052 0001142 270.4811  89.5900 15.02534896 92158
STARLINK-5576           
1 55382U 23013BD  24271.46042675  .00000864  00000+0  79050-4 0  9994
2 55382  43.0035 303.2629 0001334 270.0963  89.9726 15.02531575 92100
STARLINK-5531           
1 55383U 23013BE  24271.99609445  .00000682  00000+0  65580-4 0  9998
2 55383  43.0048 274.3967 0001340 268.1866  91.8823 15.02531526 92910
STARLINK-5537           
1 55384U 23013BF  24271.79059263  .00001349  00000+0  11489-3 0  9993
2 55384  43.0032 301.4413 0001406 265.5710  94.4972 15.02537821 92158
STARLINK-5556           
1 55385U 23013BG  24271.77616330  .00001219  00000+0  10531-3 0  9999
2 55385  43.0045 301.3301 0001674 269.4977  90.5674 15.02536026 92155
STARLINK-5555           
1 55386U 23013BH  24271.77949392  .00001227  00000+0  10586-3 0  9996
2 55386  43.0052 301.3550 0001265 269.0936  90.9761 15.02536877 92152
STARLINK-5077           
1 55391U 23014A   24271.46334474  .00020487  00000+0  17291-2 0  9996
2 55391  70.0015 316.2273 0003686 273.8994  86.1744 14.98118159 92937
STARLINK-5085           
1 55392U 23014B   24271.49992008 -.00001619  00000+0 -12788-3 0  9998
2 55392  69.9978 296.1010 0002674 277.0185  83.0669 14.98331612 93431
STARLINK-4786           
1 55393U 23014C   24271.57958891  .00000558  00000+0  54586-4 0  9992
2 55393  69.9994 315.8624 0002965 269.4298  90.6521 14.98325583 92950
STARLINK-5274           
1 55395U 23014E   24271.52101007  .00000335  00000+0  35913-4 0  9994
2 55395  69.9994 316.0355 0002997 268.7636  91.3179 14.98324033 92001
STARLINK-5283           
1 55396U 23014F   24271.58359472  .00000165  00000+0  21615-4 0  9997
2 55396  69.9994 315.8649 0002892 265.1470  94.9358 14.98326906 92959
STARLINK-5224           
1 55397U 23014G   24271.81287122  .00001068  00000+0  97312-4 0  9996
2 55397  69.9980 295.5739 0003026 268.0439  92.0374 14.98326848 93476
STARLINK-5275           
1 55398U 23014H   24271.46677401 -.00000128  00000+0 -29130-5 0  9993
2 55398  69.9995 316.2586 0003073 268.7617  91.3190 14.98323727 92932
STARLINK-5276           
1 55399U 23014J   24271.45842486  .00000011  00000+0  87076-5 0  9992
2 55399  70.0001 316.2294 0002791 264.6368  95.4473 14.98323934 92933
STARLINK-5632           
1 55400U 23014K   24271.47512153  .00000102  00000+0  16316-4 0  9991
2 55400  69.9981 316.2867 0002957 268.4995  91.5826 14.98325309 92935
STARLINK-5076           
1 55401U 23014L   24271.46260003 -.00000008  00000+0  71121-5 0  9997
2 55401  69.9996 316.2427 0002923 264.8466  95.2360 14.98325658 92931
STARLINK-5071           
1 55402U 23014M   24271.55023292  .00002565  00000+0  22274-3 0  9997
2 55402  69.9992 316.1491 0002958 270.3914  89.6906 14.98314790 92945
STARLINK-5597           
1 55403U 23014N   24271.53770881  .00000178  00000+0  22729-4 0  9993
2 55403  69.9994 316.1049 0002938 265.0187  95.0637 14.98323887 92947
STARLINK-5607           
1 55404U 23014P   24271.82561071 -.00004017  00000+0 -32889-3 0  9990
2 55404  69.9988 315.5055 0002957 267.2387  92.8433 14.98348560 92986
STARLINK-5623           
1 55405U 23014Q   24271.54604483 -.00001016  00000+0 -77367-4 0  9992
2 55405  70.0003 316.1345 0002865 268.0472  92.0359 14.98339578 92943
STARLINK-5630           
1 55406U 23014R   24271.82978881 -.00001885  00000+0 -15019-3 0  9999
2 55406  69.9992 315.5217 0003049 260.8450  99.2364 14.98334290 92985
STARLINK-5019           
1 55407U 23014S   24271.48765138  .00006335  00000+0  53875-3 0  9996
2 55407  69.9990 316.3329 0002815 267.3312  92.7525 14.98296152 92932
STARLINK-5092           
1 55408U 23014T   24271.83395516 -.00006061  00000+0 -50028-3 0  9990
2 55408  69.9996 315.5347 0003025 273.5361  86.5452 14.98356556 92987
STARLINK-5047           
1 55409U 23014U   24271.82995606  .00000173  00000+0  22259-4 0  9998
2 55409  69.9995 315.5200 0002853 272.8580  87.2252 14.98327874 92985
STARLINK-5633           
1 55410U 23014V   24271.60051596  .00000181  00000+0  22961-4 0  9996
2 55410  69.9994 335.7930 0002890 264.6642  95.4187 14.98325157 92462
STARLINK-5605           
1 55411U 23014W   24271.83813576 -.00003056  00000+0 -24834-3 0  9992
2 55411  69.9997 315.5506 0002840 264.1057  95.9778 14.98341000 92984
