OBJECT_NAME,OBJECT_ID,EPOCH,MEAN_MOTION,ECCENTRICITY,INCLINATION,RA_OF_ASC_NODE,ARG_OF_PERICENTER,MEAN_ANOMALY,EPHEMERIS_TYPE,CLASSIFICATION_TYPE,NORAD_CAT_ID,ELEMENT_SET_NO,REV_AT_EPOCH,BSTAR,MEAN_MOTION_DOT,MEAN_MOTION_DDOT
STARLINK-5567,2023-013AY,2024-09-28T01:10:10.860384,15.02532695,.0001657,43.0051,299.9361,270.8653,89.2000,0,U,55377,999,9262,.16543E-3,.2031E-4,0
STARLINK-5572,2023-013AZ,2024-09-27T19:11:14.394624,15.02534644,.0001706,43.0048,301.5054,269.8456,90.2191,0,U,55378,999,9215,.81671E-4,.9E-5,0
STARLINK-5569,2023-013BA,2024-09-27T18:56:51.619776,15.02532608,.0001211,43.0026,301.4306,266.9710,93.0994,0,U,55379,999,9215,.43755E-4,.387E-5,0
STARLINK-5571,2023-013BB,2024-09-27T09:37:36.940800,15.02537520,.0001053,43.0003,277.6782,269.0827,90.9895,0,U,55380,999,9239,-.94918E-5,-.332E-5,0
STARLINK-5575,2023-013BC,2024-09-27T18:52:03.931104,15.02534896,.0001142,43.0055,301.4052,270.4811,89.5900,0,U,55381,999,9215,.68254E-4,.718E-5,0
STARLINK-5576,2023-013BD,2024-09-27T11:03:00.871200,15.02531575,.0001334,43.0035,303.2629,270.0963,89.9726,0,U,55382,999,9210,.7905E-4,.864E-5,0
STARLINK-5531,2023-013BE,2024-09-27T23:54:22.560480,15.02531526,.000134,43.0048,274.3967,268.1866,91.8823,0,U,55383,999,9291,.6558E-4,.682E-5,0
STARLINK-5537,2023-013BF,2024-09-27T18:58:27.203232,15.02537821,.0001406,43.0032,301.4413,265.5710,94.4972,0,U,55384,999,9215,.11489E-3,.1349E-4,0
STARLINK-5556,2023-013BG,2024-09-27T18:37:40.509120,15.02536026,.0001674,43.0045,301.3301,269.4977,90.5674,0,U,55385,999,9215,.10531E-3,.1219E-4,0
STARLINK-5555,2023-013BH,2024-09-27T18:42:28.274688,15.02536877,.0001265,43.0052,301.3550,269.0936,90.9761,0,U,55386,999,9215,.10586E-3,.1227E-4,0
STARLINK-5077,2023-014A,2024-09-27T11:07:12.985536,14.98118159,.0003686,70.0015,316.2273,273.8994,86.1744,0,U,55391,999,9293,.17291E-2,.20487E-3,0
STARLINK-5085,2023-014B,2024-09-27T11:59:53.094912,14.98331612,.0002674,69.9978,296.1010,277.0185,83.0669,0,U,55392,999,9343,-.12788E-3,-.1619E-4,0
STARLINK-4786,2023-014C,2024-09-27T13:54:36.481824,14.98325583,.0002965,69.9994,315.8624,269.4298,90.6521,0,U,55393,999,9295,.54586E-4,.558E-5,0
STARLINK-5274,2023-014E,2024-09-27T12:30:15.270048,14.98324033,.0002997,69.9994,316.0355,268.7636,91.3179,0,U,55395,999,9200,.35913E-4,.335E-5,0
STARLINK-5283,2023-014F,2024-09-27T14:00:22.583808,14.98326906,.0002892,69.9994,315.8649,265.1470,94.9358,0,U,55396,999,9295,.21615E-4,.165E-5,0
STARLINK-5224,2023-014G,2024-09-27T19:30:32.073408,14.98326848,.0003026,69.9980,295.5739,268.0439,92.0374,0,U,55397,999,9347,.97312E-4,.1068E-4,0
STARLINK-5275,2023-014H,2024-09-27T11:12:09.274464,14.98323727,.0003073,69.9995,316.2586,268.7617,91.3190,0,U,55398,999,9293,-.2913E-5,-.128E-5,0
STARLINK-5276,2023-014J,2024-09-27T11:00:07.907904,14.98323934,.0002791,70.0001,316.2294,264.6368,95.4473,0,U,55399,999,9293,.87076E-5,.11E-6,0
STARLINK-5632,2023-014K,2024-09-27T11:24:10.500192,14.98325309,.0002957,69.9981,316.2867,268.4995,91.5826,0,U,55400,999,9293,.16316E-4,.102E-5,0
STARLINK-5076,2023-014L,2024-09-27T11:06:08.642592,14.98325658,.0002923,69.9996,316.2427,264.8466,95.2360,0,U,55401,999,9293,.71121E-5,-.8E-7,0
STARLINK-5071,2023-014M,2024-09-27T13:12:20.124288,14.98314790,.0002958,69.9992,316.1491,270.3914,89.6906,0,U,55402,999,9294,.22274E-3,.2565E-4,0
STARLINK-5597,2023-014N,2024-09-27T12:54:18.041184,14.98323887,.0002938,69.9994,316.1049,265.0187,95.0637,0,U,55403,999,9294,.22729E-4,.178E-5,0
STARLINK-5607,2023-014P,2024-09-27T19:48:52.765344,14.98348560,.0002957,69.9988,315.5055,267.2387,92.8433,0,U,55404,999,9298,-.32889E-3,-.4017E-4,0
STARLINK-5623,2023-014Q,2024-09-27T13:06:18.273312,14.98339578,.0002865,70.0003,316.1345,268.0472,92.0359,0,U,55405,999,9294,-.77367E-4,-.1016E-4,0
STARLINK-5630,2023-014R,2024-09-27T19:54:53.753184,14.98334290,.0003049,69.9992,315.5217,260.8450,99.2364,0,U,55406,999,9298,-.15019E-3,-.1885E-4,0
STARLINK-5019,2023-014S,2024-09-27T11:42:13.079232,14.98296152,.0002815,69.9990,316.3329,267.3312,92.7525,0,U,55407,999,9293,.53875E-3,.6335E-4,0
STARLINK-5092,2023-014T,2024-09-27T20:00:53.725824,14.98356556,.0003025,69.9996,315.5347,273.5361,86.5452,0,U,55408,999,9298,-.50028E-3,-.6061E-4,0
STARLINK-5047,2023-014U,2024-09-27T19:55:08.203584,14.98327874,.0002853,69.9995,315.5200,272.8580,87.2252,0,U,55409,999,9298,.22259E-4,.173E-5,0
STARLINK-5633,2023-014V,2024-09-27T14:24:44.578944,14.98325157,.000289,69.9994,335.7930,264.6642,95.4187,0,U,55410,999,9246,.22961E-4,.181E-5,0
STARLINK-5605,2023-014W,2024-09-27T20:06:54.929664,14.98341000,.000284,69.9997,315.5506,264.1057,95.9778,0,U,55411,999,9298,-.24834E-3,-.3056E-4,0
